[{"OBJECT_NAME":"HAWK-7A","OBJECT_ID":"2023-054P","EPOCH":"2026-03-05T16:33:01.928160","MEAN_MOTION":15.26176325,"ECCENTRICITY":0.0004375,"INCLINATION":97.2839,"RA_OF_ASC_NODE":314.6599,"ARG_OF_PERICENTER":59.4322,"MEAN_ANOMALY":300.7348,"EPHEMERIS_TYPE":0,"CLASSIFICATION_TYPE":"U","NORAD_CAT_ID":56191,"ELEMENT_SET_NO":999,"REV_AT_EPOCH":16123,"BSTAR":0.000347,"MEAN_MOTION_DOT":8.904e-5,"MEAN_MOTION_DDOT":0},{"OBJECT_NAME":"HAWK-7B","OBJECT_ID":"2023-054R","EPOCH":"2026-03-05T16:32:55.300416","MEAN_MOTION":15.26136574,"ECCENTRICITY":0.000388,"INCLINATION":97.2871,"RA_OF_ASC_NODE":312.8843,"ARG_OF_PERICENTER":70.0006,"MEAN_ANOMALY":290.165,"EPHEMERIS_TYPE":0,"CLASSIFICATION_TYPE":"U","NORAD_CAT_ID":56193,"ELEMENT_SET_NO":999,"REV_AT_EPOCH":16123,"BSTAR":0.00035168,"MEAN_MOTION_DOT":9.013e-5,"MEAN_MOTION_DDOT":0},{"OBJECT_NAME":"HAWK-7C","OBJECT_ID":"2023-054Y","EPOCH":"2026-03-05T16:32:45.283200","MEAN_MOTION":15.26138044,"ECCENTRICITY":0.0003896,"INCLINATION":97.2845,"RA_OF_ASC_NODE":313.687,"ARG_OF_PERICENTER":60.3689,"MEAN_ANOMALY":299.7937,"EPHEMERIS_TYPE":0,"CLASSIFICATION_TYPE":"U","NORAD_CAT_ID":56200,"ELEMENT_SET_NO":999,"REV_AT_EPOCH":16123,"BSTAR":0.00034437,"MEAN_MOTION_DOT":8.825e-5,"MEAN_MOTION_DDOT":0}]
