HAWK-7A                 
1 56191U 23054P   26064.68960566  .00008904  00000+0  34700-3 0  9997
2 56191  97.2839 314.6599 0004375  59.4322 300.7348 15.26176325161239
HAWK-7B                 
1 56193U 23054R   26064.68952894  .00009013  00000+0  35168-3 0  9995
2 56193  97.2871 312.8843 0003880  70.0006 290.1650 15.26136574161237
HAWK-7C                 
1 56200U 23054Y   26064.68941300  .00008825  00000+0  34437-3 0  9992
2 56200  97.2845 313.6870 0003896  60.3689 299.7937 15.26138044161239
